{"spkid": "20696513", "covariance": {"epoch": "2458592.5", "elements": [{"label": "e", "units": null, "value": ".5450731675122119", "title": "eccentricity", "sigma": 8.5392327216616e-08, "name": "e"}, {"name": "q", "sigma": 1.19464315999663e-07, "title": "perihelion distance", "value": ".6399595184042746", "units": "au", "label": "q"}, {"value": "2458314.046084621052", "title": "time of perihelion passage", "units": "TDB", "name": "tp", "sigma": 8.87949365438348e-05, "label": "tp"}, {"units": "deg", "title": "longitude of the ascending node", "value": "340.9780846118582", "name": "om", "sigma": 8.88493673208314e-05, "label": "node"}, {"label": "peri", "sigma": 8.26213867721846e-05, "name": "w", "title": "argument of perihelion", "value": "87.34619276206128", "units": "deg"}, {"sigma": 6.66511451693276e-06, "name": "i", "title": "inclination", "value": "4.600128688068195", "units": "deg", "label": "i"}], "data": [["7.291849547469612E-15", "-1.019990047270607E-14", "-5.534807687844607E-12", "-1.976779007065485E-12", "4.657088550691676E-13", "-1.559581684569427E-14"], ["-1.019990047270607E-14", "1.427172279726735E-14", "7.695843755227547E-12", "2.74757694900781E-12", "-6.510787657748231E-13", "2.172950672134031E-14"], ["-5.534807687844607E-12", "7.695843755227547E-12", "7.884540755823647E-9", "2.891794403789815E-9", "-3.084602893322578E-10", "3.985999683189473E-11"], ["-1.976779007065485E-12", "2.74757694900781E-12", "2.891794403789815E-9", "7.894210073312015E-9", "-6.91979054592629E-9", "-4.405579718876515E-10"], ["4.657088550691676E-13", "-6.510787657748231E-13", "-3.084602893322578E-10", "-6.91979054592629E-9", "6.826293552158928E-9", "4.534456799651323E-10"], ["-1.559581684569427E-14", "2.172950672134031E-14", "3.985999683189473E-11", "-4.405579718876515E-10", "4.534456799651323E-10", "4.442375152382788E-11"]], "labels": ["e", "q", "tp", "node", "peri", "i"]}, "elements": [{"label": "e", "sigma": "8.5487E-8", "name": "e", "units": null, "title": "eccentricity", "value": ".5448995165929428"}, {"label": "a", "title": "semi-major axis", "value": "1.406612618908041", "units": "au", "sigma": "5.0807E-9", "name": "a"}, {"label": "q", "units": "au", "value": ".6401500828315161", "title": "perihelion distance", "name": "q", "sigma": "1.193E-7"}, {"label": "i", "name": "i", "sigma": "6.6731E-6", "title": "inclination; angle with respect to x-y ecliptic plane", "value": "4.600250185988846", "units": "deg"}, {"label": "node", "sigma": "8.8796E-5", "name": "om", "value": "340.8794698712233", "title": "longitude of the ascending node", "units": "deg"}, {"units": "deg", "value": "87.45842083249354", "title": "argument of perihelion", "name": "w", "sigma": "8.2576E-5", "label": "peri"}, {"label": "M", "units": "deg", "value": "265.274044333367", "title": "mean anomaly", "sigma": "4.7949E-5", "name": "ma"}, {"units": "TDB", "value": "2461360.834390568254", "title": "time of perihelion passage", "name": "tp", "sigma": "8.0744E-5", "label": "tp"}, {"name": "per", "sigma": "3.3014E-6", "units": "d", "title": "sidereal orbital period", "value": "609.3407049669222", "label": "period"}, {"name": "n", "sigma": "3.201E-9", "units": "deg/d", "value": ".590802480558955", "title": "mean motion", "label": "n"}, {"units": "au", "value": "2.173075154984565", "title": "aphelion distance", "name": "ad", "sigma": "7.8492E-9", "label": "Q"}], "epoch": "2461200.5"}